[{"OBJECT_NAME":"SDA_1669","OBJECT_ID":"2025-230F","EPOCH":"2026-03-09T23:15:29.145312","MEAN_MOTION":13.85259499,"ECCENTRICITY":0.00048218,"INCLINATION":81.3002,"RA_OF_ASC_NODE":303.6388,"ARG_OF_PERICENTER":103.9978,"MEAN_ANOMALY":256.1716,"EPHEMERIS_TYPE":0,"CLASSIFICATION_TYPE":"U","NORAD_CAT_ID":65979,"ELEMENT_SET_NO":999,"REV_AT_EPOCH":2008,"BSTAR":0.00013412662,"MEAN_MOTION_DOT":1.64e-6,"MEAN_MOTION_DDOT":0},{"OBJECT_NAME":"COSMOS 1275 DEB","OBJECT_ID":"1981-053CC","EPOCH":"2026-03-09T23:13:06.333024","MEAN_MOTION":13.70754754,"ECCENTRICITY":0.00970534,"INCLINATION":83.1426,"RA_OF_ASC_NODE":135.4184,"ARG_OF_PERICENTER":278.1252,"MEAN_ANOMALY":199.4456,"EPHEMERIS_TYPE":0,"CLASSIFICATION_TYPE":"U","NORAD_CAT_ID":12735,"ELEMENT_SET_NO":999,"REV_AT_EPOCH":22071,"BSTAR":0.0012014223,"MEAN_MOTION_DOT":1.118e-5,"MEAN_MOTION_DDOT":0}]
